{
  "type": "FeatureCollection",
  "features": [
    {
      "type": "Feature",
      "properties": {
        "norad_id": 37836,
        "name": "EUTELSAT 16A",
        "group": "eutelsat",
        "lat": -0.08418476108856844,
        "lon": -109.46948284946902,
        "alt_km": 35763.43635254389,
        "timestamp": "2025-12-21T09:37:22.319788+00:00",
        "meta_object_name": "EUTELSAT 16A",
        "meta_object_id": "2011-057A",
        "meta_epoch": "2025-12-21T03:24:38.628000",
        "meta_mean_motion": 1.00269563,
        "meta_eccentricity": 0.0005867,
        "meta_inclination": 0.0593,
        "meta_ra_of_asc_node": 339.327,
        "meta_arg_of_pericenter": 291.9842,
        "meta_mean_anomaly": 245.8169,
        "meta_ephemeris_type": 0,
        "meta_classification_type": "U",
        "meta_norad_cat_id": 37836,
        "meta_element_set_no": 999,
        "meta_rev_at_epoch": 554,
        "meta_bstar": 0,
        "meta_mean_motion_dot": 1.27e-06,
        "meta_mean_motion_ddot": 0,
        "tle_line1": "1 37836U 11057A   25355.14211375  .00000127  00000+0  00000+0 0  9993",
        "tle_line2": "2 37836   0.0593 339.3270 0005867 291.9842 245.8169  1.00269563  5545"
      },
      "geometry": {
        "type": "Point",
        "coordinates": [
          -109.46948284946902,
          -0.08418476108856844
        ]
      }
    },
    {
      "type": "Feature",
      "properties": {
        "norad_id": 38992,
        "name": "EUTELSAT 21B",
        "group": "eutelsat",
        "lat": -0.09377954486506769,
        "lon": -103.86153991892422,
        "alt_km": 35773.5856928274,
        "timestamp": "2025-12-21T09:37:22.319799+00:00",
        "meta_object_name": "EUTELSAT 21B",
        "meta_object_id": "2012-062B",
        "meta_epoch": "2025-12-21T03:01:45.088320",
        "meta_mean_motion": 1.0026935,
        "meta_eccentricity": 0.0003262,
        "meta_inclination": 0.0684,
        "meta_ra_of_asc_node": 341.2472,
        "meta_arg_of_pericenter": 292.7875,
        "meta_mean_anomaly": 242.9505,
        "meta_ephemeris_type": 0,
        "meta_classification_type": "U",
        "meta_norad_cat_id": 38992,
        "meta_element_set_no": 999,
        "meta_rev_at_epoch": 4804,
        "meta_bstar": 0,
        "meta_mean_motion_dot": 1.53e-06,
        "meta_mean_motion_ddot": 0,
        "tle_line1": "1 38992U 12062B   25355.12621630  .00000153  00000+0  00000+0 0  9990",
        "tle_line2": "2 38992   0.0684 341.2472 0003262 292.7875 242.9505  1.00269350 48046"
      },
      "geometry": {
        "type": "Point",
        "coordinates": [
          -103.86153991892422,
          -0.09377954486506769
        ]
      }
    },
    {
      "type": "Feature",
      "properties": {
        "norad_id": 39020,
        "name": "EUTELSAT 70B",
        "group": "eutelsat",
        "lat": -0.07652718711719554,
        "lon": -54.91717381379632,
        "alt_km": 35774.69725385399,
        "timestamp": "2025-12-21T09:37:22.319811+00:00",
        "meta_object_name": "EUTELSAT 70B",
        "meta_object_id": "2012-069A",
        "meta_epoch": "2025-12-21T03:15:43.748928",
        "meta_mean_motion": 1.00271514,
        "meta_eccentricity": 0.0004264,
        "meta_inclination": 0.0615,
        "meta_ra_of_asc_node": 6.2959,
        "meta_arg_of_pericenter": 248.014,
        "meta_mean_anomaly": 315.0718,
        "meta_ephemeris_type": 0,
        "meta_classification_type": "U",
        "meta_norad_cat_id": 39020,
        "meta_element_set_no": 999,
        "meta_rev_at_epoch": 4772,
        "meta_bstar": 0,
        "meta_mean_motion_dot": -2e-07,
        "meta_mean_motion_ddot": 0,
        "tle_line1": "1 39020U 12069A   25355.13592302 -.00000020  00000+0  00000+0 0  9998",
        "tle_line2": "2 39020   0.0615   6.2959 0004264 248.0140 315.0718  1.00271514 47720"
      },
      "geometry": {
        "type": "Point",
        "coordinates": [
          -54.91717381379632,
          -0.07652718711719554
        ]
      }
    },
    {
      "type": "Feature",
      "properties": {
        "norad_id": 39122,
        "name": "EUTELSAT 117 WEST A",
        "group": "eutelsat",
        "lat": 0.02001886531735003,
        "lon": 117.75877099831706,
        "alt_km": 35796.527910814635,
        "timestamp": "2025-12-21T09:37:22.319824+00:00",
        "meta_object_name": "EUTELSAT 117 WEST A",
        "meta_object_id": "2013-012A",
        "meta_epoch": "2025-12-21T04:31:22.898208",
        "meta_mean_motion": 1.00270307,
        "meta_eccentricity": 0.0002596,
        "meta_inclination": 0.0286,
        "meta_ra_of_asc_node": 304.2421,
        "meta_arg_of_pericenter": 329.3971,
        "meta_mean_anomaly": 127.4345,
        "meta_ephemeris_type": 0,
        "meta_classification_type": "U",
        "meta_norad_cat_id": 39122,
        "meta_element_set_no": 999,
        "meta_rev_at_epoch": 4664,
        "meta_bstar": 0,
        "meta_mean_motion_dot": 1e-07,
        "meta_mean_motion_ddot": 0,
        "tle_line1": "1 39122U 13012A   25355.18845947  .00000010  00000+0  00000+0 0  9999",
        "tle_line2": "2 39122   0.0286 304.2421 0002596 329.3971 127.4345  1.00270307 46643"
      },
      "geometry": {
        "type": "Point",
        "coordinates": [
          117.75877099831706,
          0.02001886531735003
        ]
      }
    },
    {
      "type": "Feature",
      "properties": {
        "norad_id": 39163,
        "name": "EUTELSAT 7B",
        "group": "eutelsat",
        "lat": -0.08057155884212513,
        "lon": -118.49903549320418,
        "alt_km": 35783.24344356875,
        "timestamp": "2025-12-21T09:37:22.319836+00:00",
        "meta_object_name": "EUTELSAT 7B",
        "meta_object_id": "2013-022A",
        "meta_epoch": "2025-12-21T03:32:38.808096",
        "meta_mean_motion": 1.0027093,
        "meta_eccentricity": 0.0004387,
        "meta_inclination": 0.0651,
        "meta_ra_of_asc_node": 0.6593,
        "meta_arg_of_pericenter": 321.5749,
        "meta_mean_anomaly": 187.8946,
        "meta_ephemeris_type": 0,
        "meta_classification_type": "U",
        "meta_norad_cat_id": 39163,
        "meta_element_set_no": 999,
        "meta_rev_at_epoch": 4616,
        "meta_bstar": 0,
        "meta_mean_motion_dot": 7.1e-07,
        "meta_mean_motion_ddot": 0,
        "tle_line1": "1 39163U 13022A   25355.14767139  .00000071  00000+0  00000+0 0  9994",
        "tle_line2": "2 39163   0.0651   0.6593 0004387 321.5749 187.8946  1.00270930 46164"
      },
      "geometry": {
        "type": "Point",
        "coordinates": [
          -118.49903549320418,
          -0.08057155884212513
        ]
      }
    },
    {
      "type": "Feature",
      "properties": {
        "norad_id": 39612,
        "name": "EXPRESS-AT1",
        "group": "eutelsat",
        "lat": -0.020389037367544712,
        "lon": -69.43741891706685,
        "alt_km": 35788.674149323386,
        "timestamp": "2025-12-21T09:37:22.319848+00:00",
        "meta_object_name": "EXPRESS-AT1",
        "meta_object_id": "2014-010A",
        "meta_epoch": "2025-12-21T03:11:36.644064",
        "meta_mean_motion": 1.00273021,
        "meta_eccentricity": 8.6e-05,
        "meta_inclination": 0.0169,
        "meta_ra_of_asc_node": 305.1797,
        "meta_arg_of_pericenter": 200.8222,
        "meta_mean_anomaly": 47.858,
        "meta_ephemeris_type": 0,
        "meta_classification_type": "U",
        "meta_norad_cat_id": 39612,
        "meta_element_set_no": 999,
        "meta_rev_at_epoch": 4303,
        "meta_bstar": 0,
        "meta_mean_motion_dot": 1.01e-06,
        "meta_mean_motion_ddot": 0,
        "tle_line1": "1 39612U 14010A   25355.13306301  .00000101  00000+0  00000+0 0  9994",
        "tle_line2": "2 39612   0.0169 305.1797 0000860 200.8222  47.8580  1.00273021 43039"
      },
      "geometry": {
        "type": "Point",
        "coordinates": [
          -69.43741891706685,
          -0.020389037367544712
        ]
      }
    },
    {
      "type": "Feature",
      "properties": {
        "norad_id": 39613,
        "name": "EXPRESS-AT2",
        "group": "eutelsat",
        "lat": 0.023216388011875994,
        "lon": 14.421149739620915,
        "alt_km": 35785.5543481861,
        "timestamp": "2025-12-21T09:37:22.319874+00:00",
        "meta_object_name": "EXPRESS-AT2",
        "meta_object_id": "2014-010B",
        "meta_epoch": "2025-12-21T03:35:19.372992",
        "meta_mean_motion": 1.00270951,
        "meta_eccentricity": 0.000106,
        "meta_inclination": 0.019,
        "meta_ra_of_asc_node": 327.4725,
        "meta_arg_of_pericenter": 327.2965,
        "meta_mean_anomaly": 348.8895,
        "meta_ephemeris_type": 0,
        "meta_classification_type": "U",
        "meta_norad_cat_id": 39613,
        "meta_element_set_no": 999,
        "meta_rev_at_epoch": 4271,
        "meta_bstar": 0,
        "meta_mean_motion_dot": -2.58e-06,
        "meta_mean_motion_ddot": 0,
        "tle_line1": "1 39613U 14010B   25355.14952978 -.00000258  00000+0  00000+0 0  9997",
        "tle_line2": "2 39613   0.0190 327.4725 0001060 327.2965 348.8895  1.00270951 42719"
      },
      "geometry": {
        "type": "Point",
        "coordinates": [
          14.421149739620915,
          0.023216388011875994
        ]
      }
    }
  ]
}